*******************************************************************************
Ephemeris / WWW_USER Wed Apr  4 23:37:33 2018 Pasadena, USA      / Horizons    
*******************************************************************************
Target body name: 90482 Orcus (2004 DW)           {source: JPL#29}
Center body name: Solar System Barycenter (0)     {source: DE431}
Center-site name: BODY CENTER
*******************************************************************************
Start time      : A.D. 2000-Jan-01 00:00:00.0000 TDB
Stop  time      : A.D. 2010-Jan-01 00:00:00.0000 TDB
Step-size       : 7200 minutes
*******************************************************************************
Center geodetic : 0.00000000,0.00000000,0.0000000 {E-lon(deg),Lat(deg),Alt(km)}
Center cylindric: 0.00000000,0.00000000,0.0000000 {E-lon(deg),Dxy(km),Dz(km)}
Center radii    : (undefined)                                                  
Small perturbers: Yes                             {source: SB431-N16}
Output units    : AU-D                                                         
Output type     : GEOMETRIC cartesian states
Output format   : 2 (position and velocity)
Reference frame : ICRF/J2000.0                                                 
Coordinate systm: Ecliptic and Mean Equinox of Reference Epoch                 
*******************************************************************************
Initial IAU76/J2000 heliocentric ecliptic osculating elements (au, days, deg.):
  EPOCH=  2456044.5 ! 2012-Apr-27.00 (TDB)         Residual RMS= .15539        
   EC= .2239836494653336   QR= 30.48746746731042   TP= 2413995.4750650763      
   OM= 268.4546910398095   W=  73.65343381519499   IN= 20.54858482478484       
  Equivalent ICRF heliocentric equatorial cartesian coordinates (au, au/d):
   X=-4.049867964603111E+01  Y= 2.500666391625204E+01  Z=-5.925446354852525E+00
  VX=-9.577823330623901E-04 VY=-1.647504241883546E-03 VZ=-1.084049635946669E-03
Asteroid physical parameters (km, seconds, rotational period in hours):        
   GM= n.a.                RAD= n.a.               ROTPER= 13.188              
   H= 2.2                  G= .150                 B-V= n.a.                   
                           ALBEDO= n.a.            STYP= n.a.                  
*******************************************************************************
JDTDB
   X     Y     Z
   VX    VY    VZ
*******************************************************************************
$$SOE
2454689.500000000 = A.D. 2008-Aug-11 00:00:00.0000 TDB 
  -3.911137519797445E+01  2.316865642305550E+01 -1.488612773359751E+01
  -1.098229657057455E-03 -1.866426178839691E-03 -3.946656069944006E-04
2454694.500000000 = A.D. 2008-Aug-16 00:00:00.0000 TDB 
  -3.911686502253475E+01  2.315932350816658E+01 -1.488810055776065E+01
  -1.097700157907505E-03 -1.866739753784195E-03 -3.944640550315633E-04
2454699.500000000 = A.D. 2008-Aug-21 00:00:00.0000 TDB 
  -3.912235219946195E+01  2.314998902574709E+01 -1.489007237411552E+01
  -1.097170603811328E-03 -1.867053191070301E-03 -3.942624836829903E-04
2454704.500000000 = A.D. 2008-Aug-26 00:00:00.0000 TDB 
  -3.912783672848133E+01  2.314065297648531E+01 -1.489204318256519E+01
  -1.096640994787412E-03 -1.867366490700823E-03 -3.940608929558112E-04
2454709.500000000 = A.D. 2008-Aug-31 00:00:00.0000 TDB 
  -3.913331860931831E+01  2.313131536106950E+01 -1.489401298301279E+01
  -1.096111330854177E-03 -1.867679652678589E-03 -3.938592828571129E-04
2454714.500000000 = A.D. 2008-Sep-05 00:00:00.0000 TDB 
  -3.913879784169838E+01  2.312197618018794E+01 -1.489598177536148E+01
  -1.095581612030035E-03 -1.867992677006397E-03 -3.936576533939851E-04
2454719.500000000 = A.D. 2008-Sep-10 00:00:00.0000 TDB 
  -3.914427442534715E+01  2.311263543452885E+01 -1.489794955951446E+01
  -1.095051838333394E-03 -1.868305563687013E-03 -3.934560045735246E-04
2454724.500000000 = A.D. 2008-Sep-15 00:00:00.0000 TDB 
  -3.914974835999029E+01  2.310329312478047E+01 -1.489991633537497E+01
  -1.094522009782638E-03 -1.868618312723184E-03 -3.932543364028217E-04
2454729.500000000 = A.D. 2008-Sep-20 00:00:00.0000 TDB 
  -3.915521964535358E+01  2.309394925163102E+01 -1.490188210284625E+01
  -1.093992126395925E-03 -1.868930924117535E-03 -3.930526488888723E-04
2454734.500000000 = A.D. 2008-Sep-25 00:00:00.0000 TDB 
  -3.916068828116289E+01  2.308460381576869E+01 -1.490384686183163E+01
  -1.093462188192200E-03 -1.869243397872990E-03 -3.928509420390279E-04
2454739.500000000 = A.D. 2008-Sep-30 00:00:00.0000 TDB 
  -3.916615426714417E+01  2.307525681788168E+01 -1.490581061223443E+01
  -1.092932195189653E-03 -1.869555733992136E-03 -3.926492158603146E-04
2454744.500000000 = A.D. 2008-Oct-05 00:00:00.0000 TDB 
  -3.917161760302348E+01  2.306590825865816E+01 -1.490777335395803E+01
  -1.092402147406702E-03 -1.869867932477639E-03 -3.924474703598618E-04
2454749.500000000 = A.D. 2008-Oct-10 00:00:00.0000 TDB 
  -3.917707828852698E+01  2.305655813878629E+01 -1.490973508690584E+01
  -1.091872044861682E-03 -1.870179993332187E-03 -3.922457055447432E-04
2454754.500000000 = A.D. 2008-Oct-15 00:00:00.0000 TDB 
  -3.918253632338086E+01  2.304720645895422E+01 -1.491169581098130E+01
  -1.091341887573198E-03 -1.870491916558307E-03 -3.920439214222406E-04
2454759.500000000 = A.D. 2008-Oct-20 00:00:00.0000 TDB 
  -3.918799170731150E+01  2.303785321985008E+01 -1.491365552608789E+01
  -1.090811675559632E-03 -1.870803702158615E-03 -3.918421179994744E-04
2454764.500000000 = A.D. 2008-Oct-25 00:00:00.0000 TDB 
  -3.919344444004528E+01  2.302849842216201E+01 -1.491561423212914E+01
  -1.090281408839432E-03 -1.871115350135675E-03 -3.916402952836216E-04
2454769.500000000 = A.D. 2008-Oct-30 00:00:00.0000 TDB 
  -3.919889452130874E+01  2.301914206657809E+01 -1.491757192900859E+01
  -1.089751087431051E-03 -1.871426860492024E-03 -3.914384532818687E-04
2454774.500000000 = A.D. 2008-Nov-04 00:00:00.0000 TDB 
  -3.920434195082847E+01  2.300978415378645E+01 -1.491952861662983E+01
  -1.089220711352951E-03 -1.871738233230248E-03 -3.912365920013841E-04
2454779.500000000 = A.D. 2008-Nov-09 00:00:00.0000 TDB 
  -3.920978672833118E+01  2.300042468447515E+01 -1.492148429489648E+01
  -1.088690280623582E-03 -1.872049468352628E-03 -3.910347114494493E-04
2454784.500000000 = A.D. 2008-Nov-14 00:00:00.0000 TDB 
  -3.921522885354366E+01  2.299106365933228E+01 -1.492343896371221E+01
  -1.088159795261414E-03 -1.872360565861664E-03 -3.908328116332656E-04
2454789.500000000 = A.D. 2008-Nov-19 00:00:00.0000 TDB 
  -3.922066832619277E+01  2.298170107904589E+01 -1.492539262298072E+01
  -1.087629255284914E-03 -1.872671525759751E-03 -3.906308925600721E-04
2454794.500000000 = A.D. 2008-Nov-24 00:00:00.0000 TDB 
  -3.922610514600551E+01  2.297233694430403E+01 -1.492734527260573E+01
  -1.087098660712554E-03 -1.872982348049256E-03 -3.904289542371206E-04
2454799.500000000 = A.D. 2008-Nov-29 00:00:00.0000 TDB 
  -3.923153931270894E+01  2.296297125579474E+01 -1.492929691249102E+01
  -1.086568011562892E-03 -1.873293032732496E-03 -3.902269966717258E-04
2454804.500000000 = A.D. 2008-Dec-04 00:00:00.0000 TDB 
  -3.923697082603020E+01  2.295360401420604E+01 -1.493124754254039E+01
  -1.086037307854122E-03 -1.873603579811830E-03 -3.900250198709778E-04
2454809.500000000 = A.D. 2008-Dec-09 00:00:00.0000 TDB 
  -3.924239968569658E+01  2.294423522022596E+01 -1.493319716265768E+01
  -1.085506549604780E-03 -1.873913989289519E-03 -3.898230238421971E-04
2454814.500000000 = A.D. 2008-Dec-14 00:00:00.0000 TDB 
  -3.924782589143538E+01  2.293486487454248E+01 -1.493514577274678E+01
  -1.084975736833294E-03 -1.874224261167816E-03 -3.896210085926430E-04
2454819.500000000 = A.D. 2008-Dec-19 00:00:00.0000 TDB 
  -3.925324944297407E+01  2.292549297784360E+01 -1.493709337271159E+01
  -1.084444869558079E-03 -1.874534395448872E-03 -3.894189741296028E-04
2454824.500000000 = A.D. 2008-Dec-24 00:00:00.0000 TDB 
  -3.925867034004016E+01  2.291611953081732E+01 -1.493903996245606E+01
  -1.083913947797570E-03 -1.874844392135066E-03 -3.892169204602876E-04
2454829.500000000 = A.D. 2008-Dec-29 00:00:00.0000 TDB 
  -3.926408858236126E+01  2.290674453415157E+01 -1.494098554188419E+01
  -1.083382971570175E-03 -1.875154251228532E-03 -3.890148475919831E-04
2454834.500000000 = A.D. 2009-Jan-03 00:00:00.0000 TDB 
  -3.926950416966510E+01  2.289736798853435E+01 -1.494293011090000E+01
  -1.082851940894307E-03 -1.875463972731445E-03 -3.888127555319599E-04
2454839.500000000 = A.D. 2009-Jan-08 00:00:00.0000 TDB 
  -3.927491710167949E+01  2.288798989465358E+01 -1.494487366940754E+01
  -1.082320855788371E-03 -1.875773556645955E-03 -3.886106442874916E-04
2454844.500000000 = A.D. 2009-Jan-13 00:00:00.0000 TDB 
  -3.928032737813231E+01  2.287861025319719E+01 -1.494681621731091E+01
  -1.081789716270691E-03 -1.876083002974175E-03 -3.884085138658214E-04
2454849.500000000 = A.D. 2009-Jan-18 00:00:00.0000 TDB 
  -3.928573499875154E+01  2.286922906485313E+01 -1.494875775451424E+01
  -1.081258522359907E-03 -1.876392311718254E-03 -3.882063642743372E-04
2454854.500000000 = A.D. 2009-Jan-23 00:00:00.0000 TDB 
  -3.929113996326528E+01  2.285984633030931E+01 -1.495069828092171E+01
  -1.080727274074372E-03 -1.876701482880266E-03 -3.880041955203057E-04
2454859.500000000 = A.D. 2009-Jan-28 00:00:00.0000 TDB 
  -3.929654227140169E+01  2.285046205025363E+01 -1.495263779643752E+01
  -1.080195971432525E-03 -1.877010516462275E-03 -3.878020076110394E-04
2454864.500000000 = A.D. 2009-Feb-02 00:00:00.0000 TDB 
  -3.930194192288904E+01  2.284107622537399E+01 -1.495457630096591E+01
  -1.079664614452812E-03 -1.877319412466329E-03 -3.875998005538578E-04
2454869.500000000 = A.D. 2009-Feb-07 00:00:00.0000 TDB 
  -3.930733891745569E+01  2.283168885635827E+01 -1.495651379441116E+01
  -1.079133203153703E-03 -1.877628170894412E-03 -3.873975743561141E-04
